{"type": "FeatureCollection", "features": [ {"type": "Feature", "properties": {"norad_id": 34001, "name": "COSMOS 2251 DEB", "group": "cosmos-2251-debris", "lat": -5.567025040989593, "lon": -75.85933825965083, "alt_km": 757.6027391718953, "timestamp": "2025-12-10T11:33:53.777361+00:00", "meta": {"OBJECT_NAME": "COSMOS 2251 DEB", "OBJECT_ID": "1993-036GL", "EPOCH": "2025-12-09T18:59:14.184960", "MEAN_MOTION": 14.37092914, "ECCENTRICITY": 0.0019839, "INCLINATION": 74.0385, "RA_OF_ASC_NODE": 287.0088, "ARG_OF_PERICENTER": 8.7018, "MEAN_ANOMALY": 13.564, "EPHEMERIS_TYPE": 0, "CLASSIFICATION_TYPE": "U", "NORAD_CAT_ID": 34001, "ELEMENT_SET_NO": 999, "REV_AT_EPOCH": 88104, "BSTAR": 0.00037919, "MEAN_MOTION_DOT": 1.103e-05, "MEAN_MOTION_DDOT": 0}, "tle": {"line1": "1 34001U 93036GL  25343.79113640  .00001103  00000+0  37919-3 0  9993", "line2": "2 34001  74.0385 287.0088 0019839   8.7018  13.5640 14.37092914881044"}}, "geometry": {"type": "Point", "coordinates": [-75.85933825965083, -5.567025040989593]}}, {"type": "Feature", "properties": {"norad_id": 34003, "name": "COSMOS 2251 DEB", "group": "cosmos-2251-debris", "lat": -48.79718173290935, "lon": -90.082787558071, "alt_km": 960.4156082774016, "timestamp": "2025-12-10T11:33:53.777370+00:00", "meta": {"OBJECT_NAME": "COSMOS 2251 DEB", "OBJECT_ID": "1993-036GN", "EPOCH": "2025-12-09T20:11:47.988096", "MEAN_MOTION": 13.84125477, "ECCENTRICITY": 0.0274138, "INCLINATION": 74.0785, "RA_OF_ASC_NODE": 290.022, "ARG_OF_PERICENTER": 42.7188, "MEAN_ANOMALY": 319.4894, "EPHEMERIS_TYPE": 0, "CLASSIFICATION_TYPE": "U", "NORAD_CAT_ID": 34003, "ELEMENT_SET_NO": 999, "REV_AT_EPOCH": 84385, "BSTAR": 0.0034157, "MEAN_MOTION_DOT": 5.07e-05, "MEAN_MOTION_DDOT": 0}, "tle": {"line1": "1 34003U 93036GN  25343.84152764  .00005070  00000+0  34157-2 0  9998", "line2": "2 34003  74.0785 290.0220 0274138  42.7188 319.4894 13.84125477843851"}}, "geometry": {"type": "Point", "coordinates": [-90.082787558071, -48.79718173290935]}}, {"type": "Feature", "properties": {"norad_id": 34004, "name": "COSMOS 2251 DEB", "group": "cosmos-2251-debris", "lat": 34.579477244689876, "lon": 125.96393056052896, "alt_km": 749.938111145716, "timestamp": "2025-12-10T11:33:53.777381+00:00", "meta": {"OBJECT_NAME": "COSMOS 2251 DEB", "OBJECT_ID": "1993-036GP", "EPOCH": "2025-12-09T08:23:26.791296", "MEAN_MOTION": 14.48954791, "ECCENTRICITY": 0.00333157, "INCLINATION": 74.0363, "RA_OF_ASC_NODE": 319.4658, "ARG_OF_PERICENTER": 332.1121, "MEAN_ANOMALY": 27.8252, "EPHEMERIS_TYPE": 0, "CLASSIFICATION_TYPE": "U", "NORAD_CAT_ID": 34004, "ELEMENT_SET_NO": 999, "REV_AT_EPOCH": 87981, "BSTAR": 0.0021272229, "MEAN_MOTION_DOT": 8.098e-05, "MEAN_MOTION_DDOT": 0}, "tle": {"line1": "1 34004U 93036GP  25343.34961564  .00008098  00000+0  21272-2 0  9997", "line2": "2 34004  74.0363 319.4658 0033315 332.1121  27.8252 14.48954791879811"}}, "geometry": {"type": "Point", "coordinates": [125.96393056052896, 34.579477244689876]}}, {"type": "Feature", "properties": {"norad_id": 34005, "name": "COSMOS 2251 DEB", "group": "cosmos-2251-debris", "lat": 49.1490595141738, "lon": 18.499170563655454, "alt_km": 765.7334296001927, "timestamp": "2025-12-10T11:33:53.777391+00:00", "meta": {"OBJECT_NAME": "COSMOS 2251 DEB", "OBJECT_ID": "1993-036GQ", "EPOCH": "2025-12-10T03:21:51.378336", "MEAN_MOTION": 14.40301335, "ECCENTRICITY": 0.0020752, "INCLINATION": 74.0447, "RA_OF_ASC_NODE": 218.45, "ARG_OF_PERICENTER": 337.0432, "MEAN_ANOMALY": 179.8956, "EPHEMERIS_TYPE": 0, "CLASSIFICATION_TYPE": "U", "NORAD_CAT_ID": 34005, "ELEMENT_SET_NO": 999, "REV_AT_EPOCH": 88341, "BSTAR": 0.00015842, "MEAN_MOTION_DOT": 4.77e-06, "MEAN_MOTION_DDOT": 0}, "tle": {"line1": "1 34005U 93036GQ  25344.14017799  .00000477  00000+0  15842-3 0  9999", "line2": "2 34005  74.0447 218.4500 0020752 337.0432 179.8956 14.40301335883411"}}, "geometry": {"type": "Point", "coordinates": [18.499170563655454, 49.1490595141738]}}, {"type": "Feature", "properties": {"norad_id": 34006, "name": "COSMOS 2251 DEB", "group": "cosmos-2251-debris", "lat": -45.746402101142394, "lon": 130.7659838122321, "alt_km": 597.0974531422089, "timestamp": "2025-12-10T11:33:53.777401+00:00", "meta": {"OBJECT_NAME": "COSMOS 2251 DEB", "OBJECT_ID": "1993-036GR", "EPOCH": "2025-12-09T22:01:46.108992", "MEAN_MOTION": 14.944179, "ECCENTRICITY": 0.0011548, "INCLINATION": 74.0548, "RA_OF_ASC_NODE": 148.9653, "ARG_OF_PERICENTER": 99.3317, "MEAN_ANOMALY": 59.7558, "EPHEMERIS_TYPE": 0, "CLASSIFICATION_TYPE": "U", "NORAD_CAT_ID": 34006, "ELEMENT_SET_NO": 999, "REV_AT_EPOCH": 88626, "BSTAR": 0.0047542, "MEAN_MOTION_DOT": 0.00051646, "MEAN_MOTION_DDOT": 0}, "tle": {"line1": "1 34006U 93036GR  25343.91789478  .00051646  00000+0  47542-2 0  9999", "line2": "2 34006  74.0548 148.9653 0011548  99.3317  59.7558 14.94417900886268"}}, "geometry": {"type": "Point", "coordinates": [130.7659838122321, -45.746402101142394]}}, {"type": "Feature", "properties": {"norad_id": 34007, "name": "COSMOS 2251 DEB", "group": "cosmos-2251-debris", "lat": 45.525891682764446, "lon": 154.27249157385506, "alt_km": 642.3597428954599, "timestamp": "2025-12-10T11:33:53.777411+00:00", "meta": {"OBJECT_NAME": "COSMOS 2251 DEB", "OBJECT_ID": "1993-036GS", "EPOCH": "2025-12-10T02:46:14.191392", "MEAN_MOTION": 14.6475506, "ECCENTRICITY": 0.0044396, "INCLINATION": 74.0195, "RA_OF_ASC_NODE": 351.9478, "ARG_OF_PERICENTER": 127.7812, "MEAN_ANOMALY": 232.739, "EPHEMERIS_TYPE": 0, "CLASSIFICATION_TYPE": "U", "NORAD_CAT_ID": 34007, "ELEMENT_SET_NO": 999, "REV_AT_EPOCH": 89041, "BSTAR": 0.00090958, "MEAN_MOTION_DOT": 4.89e-05, "MEAN_MOTION_DDOT": 0}, "tle": {"line1": "1 34007U 93036GS  25344.11544203  .00004890  00000+0  90958-3 0  9997", "line2": "2 34007  74.0195 351.9478 0044396 127.7812 232.7390 14.64755060890419"}}, "geometry": {"type": "Point", "coordinates": [154.27249157385506, 45.525891682764446]}}, {"type": "Feature", "properties": {"norad_id": 34008, "name": "COSMOS 2251 DEB", "group": "cosmos-2251-debris", "lat": 73.72939013373275, "lon": 75.86474069124651, "alt_km": 783.218061522819, "timestamp": "2025-12-10T11:33:53.777421+00:00", "meta": {"OBJECT_NAME": "COSMOS 2251 DEB", "OBJECT_ID": "1993-036GT", "EPOCH": "2025-12-10T03:04:55.673760", "MEAN_MOTION": 14.33143253, "ECCENTRICITY": 0.002422, "INCLINATION": 74.0341, "RA_OF_ASC_NODE": 335.2909, "ARG_OF_PERICENTER": 330.9928, "MEAN_ANOMALY": 99.0626, "EPHEMERIS_TYPE": 0, "CLASSIFICATION_TYPE": "U", "NORAD_CAT_ID": 34008, "ELEMENT_SET_NO": 999, "REV_AT_EPOCH": 87927, "BSTAR": 0.00018993, "MEAN_MOTION_DOT": 4.97e-06, "MEAN_MOTION_DDOT": 0}, "tle": {"line1": "1 34008U 93036GT  25344.12842215  .00000497  00000+0  18993-3 0  9991", "line2": "2 34008  74.0341 335.2909 0024220 330.9928  99.0626 14.33143253879275"}}, "geometry": {"type": "Point", "coordinates": [75.86474069124651, 73.72939013373275]}}, {"type": "Feature", "properties": {"norad_id": 34009, "name": "COSMOS 2251 DEB", "group": "cosmos-2251-debris", "lat": 48.72007797940929, "lon": 142.03476424080674, "alt_km": 771.9612422775908, "timestamp": "2025-12-10T11:33:53.777431+00:00", "meta": {"OBJECT_NAME": "COSMOS 2251 DEB", "OBJECT_ID": "1993-036GU", "EPOCH": "2025-12-10T01:10:43.114368", "MEAN_MOTION": 14.33218678, "ECCENTRICITY": 0.0026419, "INCLINATION": 74.037, "RA_OF_ASC_NODE": 341.8539, "ARG_OF_PERICENTER": 52.348, "MEAN_ANOMALY": 3.8972, "EPHEMERIS_TYPE": 0, "CLASSIFICATION_TYPE": "U", "NORAD_CAT_ID": 34009, "ELEMENT_SET_NO": 999, "REV_AT_EPOCH": 87907, "BSTAR": 0.00020783, "MEAN_MOTION_DOT": 5.48e-06, "MEAN_MOTION_DDOT": 0}, "tle": {"line1": "1 34009U 93036GU  25344.04911012  .00000548  00000+0  20783-3 0  9992", "line2": "2 34009  74.0370 341.8539 0026419  52.3480   3.8972 14.33218678879079"}}, "geometry": {"type": "Point", "coordinates": [142.03476424080674, 48.72007797940929]}}, {"type": "Feature", "properties": {"norad_id": 34010, "name": "COSMOS 2251 DEB", "group": "cosmos-2251-debris", "lat": 27.564821033240058, "lon": -63.34237771121252, "alt_km": 507.6968174961712, "timestamp": "2025-12-10T11:33:53.777440+00:00", "meta": {"OBJECT_NAME": "COSMOS 2251 DEB", "OBJECT_ID": "1993-036GV", "EPOCH": "2025-12-09T19:37:14.191104", "MEAN_MOTION": 15.17826628, "ECCENTRICITY": 0.0004829, "INCLINATION": 73.9979, "RA_OF_ASC_NODE": 289.4325, "ARG_OF_PERICENTER": 64.2163, "MEAN_ANOMALY": 295.9531, "EPHEMERIS_TYPE": 0, "CLASSIFICATION_TYPE": "U", "NORAD_CAT_ID": 34010, "ELEMENT_SET_NO": 999, "REV_AT_EPOCH": 89241, "BSTAR": 0.0061446, "MEAN_MOTION_DOT": 0.00126559, "MEAN_MOTION_DDOT": 0}, "tle": {"line1": "1 34010U 93036GV  25343.81752536  .00126559  00000+0  61446-2 0  9993", "line2": "2 34010  73.9979 289.4325 0004829  64.2163 295.9531 15.17826628892416"}}, "geometry": {"type": "Point", "coordinates": [-63.34237771121252, 27.564821033240058]}}, {"type": "Feature", "properties": {"norad_id": 34011, "name": "COSMOS 2251 DEB", "group": "cosmos-2251-debris", "lat": 59.89031681102052, "lon": 3.961747662953974, "alt_km": 721.4091776219466, "timestamp": "2025-12-10T11:33:53.777450+00:00", "meta": {"OBJECT_NAME": "COSMOS 2251 DEB", "OBJECT_ID": "1993-036GW", "EPOCH": "2025-12-10T01:16:42.354336", "MEAN_MOTION": 14.41748455, "ECCENTRICITY": 0.0035423, "INCLINATION": 74.0156, "RA_OF_ASC_NODE": 335.1342, "ARG_OF_PERICENTER": 59.5603, "MEAN_ANOMALY": 300.9044, "EPHEMERIS_TYPE": 0, "CLASSIFICATION_TYPE": "U", "NORAD_CAT_ID": 34011, "ELEMENT_SET_NO": 999, "REV_AT_EPOCH": 87877, "BSTAR": 0.0010796, "MEAN_MOTION_DOT": 3.525e-05, "MEAN_MOTION_DDOT": 0}, "tle": {"line1": "1 34011U 93036GW  25344.05326799  .00003525  00000+0  10796-2 0  9998", "line2": "2 34011  74.0156 335.1342 0035423  59.5603 300.9044 14.41748455878770"}}, "geometry": {"type": "Point", "coordinates": [3.961747662953974, 59.89031681102052]}}]}